CCSDS_OMM_VERS = 2.0
CREATION_DATE  = 
ORIGINATOR     = 

OBJECT_NAME    = HULIANWANG DIGUI-137
OBJECT_ID      = 2026-007A
CENTER_NAME    = EARTH
REF_FRAME      = TEME
TIME_SYSTEM    = UTC
MEAN_ELEMENT_THEORY = SGP/SGP4

EPOCH          = 2026-02-08T13:40:39.234720
MEAN_MOTION    = 13.73645514
ECCENTRICITY   = .0002101
INCLINATION    = 50.0204
RA_OF_ASC_NODE = 191.9611
ARG_OF_PERICENTER = 181.7630
MEAN_ANOMALY   = 178.3255

EPHEMERIS_TYPE = 0
CLASSIFICATION_TYPE = U
NORAD_CAT_ID   = 67435
ELEMENT_SET_NO = 999
REV_AT_EPOCH   = 360
BSTAR          = .15901E-3
MEAN_MOTION_DOT = .9E-7
MEAN_MOTION_DDOT = 0

CCSDS_OMM_VERS = 2.0
CREATION_DATE  = 
ORIGINATOR     = 

OBJECT_NAME    = HULIANWANG DIGUI-138
OBJECT_ID      = 2026-007B
CENTER_NAME    = EARTH
REF_FRAME      = TEME
TIME_SYSTEM    = UTC
MEAN_ELEMENT_THEORY = SGP/SGP4

EPOCH          = 2026-02-08T17:19:15.312864
MEAN_MOTION    = 13.72480489
ECCENTRICITY   = .00052016
INCLINATION    = 49.9939
RA_OF_ASC_NODE = 191.4092
ARG_OF_PERICENTER = 205.5170
MEAN_ANOMALY   = 154.5465

EPHEMERIS_TYPE = 0
CLASSIFICATION_TYPE = U
NORAD_CAT_ID   = 67436
ELEMENT_SET_NO = 999
REV_AT_EPOCH   = 362
BSTAR          = .15618876E-3
MEAN_MOTION_DOT = .4E-7
MEAN_MOTION_DDOT = 0

CCSDS_OMM_VERS = 2.0
CREATION_DATE  = 
ORIGINATOR     = 

OBJECT_NAME    = HULIANWANG DIGUI-139
OBJECT_ID      = 2026-007C
CENTER_NAME    = EARTH
REF_FRAME      = TEME
TIME_SYSTEM    = UTC
MEAN_ELEMENT_THEORY = SGP/SGP4

EPOCH          = 2026-02-09T07:13:16.827744
MEAN_MOTION    = 13.72375730
ECCENTRICITY   = .0000593
INCLINATION    = 50.0015
RA_OF_ASC_NODE = 189.1414
ARG_OF_PERICENTER = 303.0880
MEAN_ANOMALY   = 56.9954

EPHEMERIS_TYPE = 0
CLASSIFICATION_TYPE = U
NORAD_CAT_ID   = 67437
ELEMENT_SET_NO = 999
REV_AT_EPOCH   = 370
BSTAR          = .1963E-3
MEAN_MOTION_DOT = .41E-6
MEAN_MOTION_DDOT = 0

CCSDS_OMM_VERS = 2.0
CREATION_DATE  = 
ORIGINATOR     = 

OBJECT_NAME    = HULIANWANG DIGUI-140
OBJECT_ID      = 2026-007D
CENTER_NAME    = EARTH
REF_FRAME      = TEME
TIME_SYSTEM    = UTC
MEAN_ELEMENT_THEORY = SGP/SGP4

EPOCH          = 2026-02-07T13:27:31.540608
MEAN_MOTION    = 13.73892776
ECCENTRICITY   = .00004499
INCLINATION    = 50.0042
RA_OF_ASC_NODE = 195.9376
ARG_OF_PERICENTER = 100.2709
MEAN_ANOMALY   = 259.8233

EPHEMERIS_TYPE = 0
CLASSIFICATION_TYPE = U
NORAD_CAT_ID   = 67438
ELEMENT_SET_NO = 999
REV_AT_EPOCH   = 346
BSTAR          = .18839618E-3
MEAN_MOTION_DOT = .37E-6
MEAN_MOTION_DDOT = 0

CCSDS_OMM_VERS = 2.0
CREATION_DATE  = 
ORIGINATOR     = 

OBJECT_NAME    = HULIANWANG DIGUI-141
OBJECT_ID      = 2026-007E
CENTER_NAME    = EARTH
REF_FRAME      = TEME
TIME_SYSTEM    = UTC
MEAN_ELEMENT_THEORY = SGP/SGP4

EPOCH          = 2026-02-07T13:08:54.624480
MEAN_MOTION    = 13.74661753
ECCENTRICITY   = .00004324
INCLINATION    = 50.0031
RA_OF_ASC_NODE = 195.8681
ARG_OF_PERICENTER = 103.6480
MEAN_ANOMALY   = 256.4460

EPHEMERIS_TYPE = 0
CLASSIFICATION_TYPE = U
NORAD_CAT_ID   = 67439
ELEMENT_SET_NO = 999
REV_AT_EPOCH   = 346
BSTAR          = .16774215E-3
MEAN_MOTION_DOT = .2E-6
MEAN_MOTION_DDOT = 0

CCSDS_OMM_VERS = 2.0
CREATION_DATE  = 
ORIGINATOR     = 

OBJECT_NAME    = HULIANWANG DIGUI-142
OBJECT_ID      = 2026-007F
CENTER_NAME    = EARTH
REF_FRAME      = TEME
TIME_SYSTEM    = UTC
MEAN_ELEMENT_THEORY = SGP/SGP4

EPOCH          = 2026-02-07T09:34:50.876544
MEAN_MOTION    = 13.75320254
ECCENTRICITY   = .00015746
INCLINATION    = 50.0103
RA_OF_ASC_NODE = 196.4425
ARG_OF_PERICENTER = 349.9268
MEAN_ANOMALY   = 10.1593

EPHEMERIS_TYPE = 0
CLASSIFICATION_TYPE = U
NORAD_CAT_ID   = 67440
ELEMENT_SET_NO = 999
REV_AT_EPOCH   = 344
BSTAR          = .11053598E-4
MEAN_MOTION_DOT = -.13E-5
MEAN_MOTION_DDOT = 0

CCSDS_OMM_VERS = 2.0
CREATION_DATE  = 
ORIGINATOR     = 

OBJECT_NAME    = HULIANWANG DIGUI-143
OBJECT_ID      = 2026-007G
CENTER_NAME    = EARTH
REF_FRAME      = TEME
TIME_SYSTEM    = UTC
MEAN_ELEMENT_THEORY = SGP/SGP4

EPOCH          = 2026-02-07T14:43:52.402080
MEAN_MOTION    = 13.75018638
ECCENTRICITY   = .0002397
INCLINATION    = 50.0040
RA_OF_ASC_NODE = 195.5696
ARG_OF_PERICENTER = 180.3309
MEAN_ANOMALY   = 179.7582

EPHEMERIS_TYPE = 0
CLASSIFICATION_TYPE = U
NORAD_CAT_ID   = 67441
ELEMENT_SET_NO = 999
REV_AT_EPOCH   = 347
BSTAR          = .16748979E-3
MEAN_MOTION_DOT = .2E-6
MEAN_MOTION_DDOT = 0

CCSDS_OMM_VERS = 2.0
CREATION_DATE  = 
ORIGINATOR     = 

OBJECT_NAME    = HULIANWANG DIGUI-144
OBJECT_ID      = 2026-007H
CENTER_NAME    = EARTH
REF_FRAME      = TEME
TIME_SYSTEM    = UTC
MEAN_ELEMENT_THEORY = SGP/SGP4

EPOCH          = 2026-02-07T09:25:24.076128
MEAN_MOTION    = 13.75792192
ECCENTRICITY   = .00019321
INCLINATION    = 50.0090
RA_OF_ASC_NODE = 196.4111
ARG_OF_PERICENTER = 359.9166
MEAN_ANOMALY   = 0.1726

EPHEMERIS_TYPE = 0
CLASSIFICATION_TYPE = U
NORAD_CAT_ID   = 67442
ELEMENT_SET_NO = 999
REV_AT_EPOCH   = 344
BSTAR          = .15225462E-3
MEAN_MOTION_DOT = .7E-7
MEAN_MOTION_DDOT = 0

CCSDS_OMM_VERS = 2.0
CREATION_DATE  = 
ORIGINATOR     = 

OBJECT_NAME    = HULIANWANG DIGUI-145
OBJECT_ID      = 2026-007J
CENTER_NAME    = EARTH
REF_FRAME      = TEME
TIME_SYSTEM    = UTC
MEAN_ELEMENT_THEORY = SGP/SGP4

EPOCH          = 2026-02-08T13:14:44.954016
MEAN_MOTION    = 13.74199719
ECCENTRICITY   = .0000703
INCLINATION    = 50.0068
RA_OF_ASC_NODE = 191.8664
ARG_OF_PERICENTER = 327.8003
MEAN_ANOMALY   = 32.2846

EPHEMERIS_TYPE = 0
CLASSIFICATION_TYPE = U
NORAD_CAT_ID   = 67443
ELEMENT_SET_NO = 999
REV_AT_EPOCH   = 360
BSTAR          = .16995E-3
MEAN_MOTION_DOT = .21E-6
MEAN_MOTION_DDOT = 0

CCSDS_OMM_VERS = 2.0
CREATION_DATE  = 
ORIGINATOR     = 

OBJECT_NAME    = CZ-8A R/B
OBJECT_ID      = 2026-007K
CENTER_NAME    = EARTH
REF_FRAME      = TEME
TIME_SYSTEM    = UTC
MEAN_ELEMENT_THEORY = SGP/SGP4

EPOCH          = 2026-02-09T11:34:07.156992
MEAN_MOTION    = 14.13552660
ECCENTRICITY   = .009224
INCLINATION    = 50.0090
RA_OF_ASC_NODE = 183.4063
ARG_OF_PERICENTER = 175.1083
MEAN_ANOMALY   = 185.0747

EPHEMERIS_TYPE = 0
CLASSIFICATION_TYPE = U
NORAD_CAT_ID   = 67444
ELEMENT_SET_NO = 999
REV_AT_EPOCH   = 379
BSTAR          = .12489E-3
MEAN_MOTION_DOT = .91E-6
MEAN_MOTION_DDOT = 0

CCSDS_OMM_VERS = 2.0
CREATION_DATE  = 
ORIGINATOR     = 

OBJECT_NAME    = STARLINK-36542
OBJECT_ID      = 2026-008A
CENTER_NAME    = EARTH
REF_FRAME      = TEME
TIME_SYSTEM    = UTC
MEAN_ELEMENT_THEORY = SGP/SGP4

EPOCH          = 2026-02-09T12:00:01.999296
MEAN_MOTION    = 15.50585881
ECCENTRICITY   = .0000624
INCLINATION    = 43.0005
RA_OF_ASC_NODE = 5.6742
ARG_OF_PERICENTER = 263.9981
MEAN_ANOMALY   = 205.7298

EPHEMERIS_TYPE = 0
CLASSIFICATION_TYPE = U
NORAD_CAT_ID   = 67445
ELEMENT_SET_NO = 999
REV_AT_EPOCH   = 526
BSTAR          = .47082E-3
MEAN_MOTION_DOT = .27382E-3
MEAN_MOTION_DDOT = 0

CCSDS_OMM_VERS = 2.0
CREATION_DATE  = 
ORIGINATOR     = 

OBJECT_NAME    = STARLINK-36539
OBJECT_ID      = 2026-008B
CENTER_NAME    = EARTH
REF_FRAME      = TEME
TIME_SYSTEM    = UTC
MEAN_ELEMENT_THEORY = SGP/SGP4

EPOCH          = 2026-02-09T12:00:01.999296
MEAN_MOTION    = 15.50624245
ECCENTRICITY   = .0001319
INCLINATION    = 43.0004
RA_OF_ASC_NODE = 5.5777
ARG_OF_PERICENTER = 273.8922
MEAN_ANOMALY   = 235.2259

EPHEMERIS_TYPE = 0
CLASSIFICATION_TYPE = U
NORAD_CAT_ID   = 67446
ELEMENT_SET_NO = 999
REV_AT_EPOCH   = 526
BSTAR          = -.18715E-2
MEAN_MOTION_DOT = -.108795E-2
MEAN_MOTION_DDOT = 0

